[{"OBJECT_NAME":"STARLINK-34630","OBJECT_ID":"2025-158S","EPOCH":"2026-03-09T13:54:42.789888","MEAN_MOTION":15.05650622,"ECCENTRICITY":0.0001986,"INCLINATION":97.6024,"RA_OF_ASC_NODE":294.0455,"ARG_OF_PERICENTER":82.2798,"MEAN_ANOMALY":277.8654,"EPHEMERIS_TYPE":0,"CLASSIFICATION_TYPE":"U","NORAD_CAT_ID":64948,"ELEMENT_SET_NO":999,"REV_AT_EPOCH":3534,"BSTAR":0.00018476,"MEAN_MOTION_DOT":2.606e-5,"MEAN_MOTION_DDOT":0},{"OBJECT_NAME":"MINOTAUR 4 DEB","OBJECT_ID":"2020-046AB","EPOCH":"2026-03-09T21:53:22.840224","MEAN_MOTION":15.04149387,"ECCENTRICITY":0.00103054,"INCLINATION":53.9803,"RA_OF_ASC_NODE":316.6393,"ARG_OF_PERICENTER":80.1776,"MEAN_ANOMALY":280.0387,"EPHEMERIS_TYPE":0,"CLASSIFICATION_TYPE":"U","NORAD_CAT_ID":52037,"ELEMENT_SET_NO":999,"REV_AT_EPOCH":22693,"BSTAR":0.00012711185,"MEAN_MOTION_DOT":1.507e-5,"MEAN_MOTION_DDOT":0}]
